ONEWEB-0403             
1 50483U 21132Q   25025.65480224  .00000070  00000+0  14466-3 0  9994
2 50483  87.9065  76.4139 0001848  95.0906 265.0438 13.18685153154703
ONEWEB-0404             
1 50484U 21132R   25025.80538281  .00000107  00000+0  26529-3 0  9993
2 50484  87.8907 122.2029 0001587  93.2622 266.8687 13.11412261149194
ONEWEB-0405             
1 50485U 21132S   25025.67060866  .00000015  00000+0  50469-5 0  9998
2 50485  87.9068  76.4004 0001490 102.7229 257.4069 13.18684720155105
ONEWEB-0406             
1 50486U 21132T   25025.65952887  .00000668  00000+0  16617-2 0  9998
2 50486  87.9065  76.4197 0002374  84.0218 276.1185 13.18693676154733
ONEWEB-0407             
1 50487U 21132U   25025.65321876  .00000031  00000+0  45552-4 0  9993
2 50487  87.9062  76.4122 0001666  98.7997 261.3324 13.18684395154670
ONEWEB-0409             
1 50488U 21132V   25025.80369313  .00000201  00000+0  53207-3 0  9993
2 50488  87.8898 122.1806 0001839  96.5104 263.6233 13.11414556149089
ONEWEB-0412             
1 50489U 21132W   25025.64215078  .00000066  00000+0  13539-3 0  9997
2 50489  87.9070  76.4248 0001467 107.0475 253.0818 13.18684097154769
ONEWEB-0413             
1 50490U 21132X   25025.64689193  .00000090  00000+0  19534-3 0  9990
2 50490  87.9069  76.4358 0001586 107.9661 252.1644 13.18684438154709
